{
  "type": "FeatureCollection",
  "features": [
    {
      "type": "Feature",
      "properties": {
        "norad_id": 31565,
        "name": "FENGYUN 1C DEB",
        "group": "fengyun-1c-debris",
        "lat": -38.93420171623832,
        "lon": -142.41378276060365,
        "alt_km": 764.5758659113762,
        "timestamp": "2025-12-04T15:47:54.381525+00:00",
        "meta_object_name": "FENGYUN 1C DEB",
        "meta_object_id": "1999-025BZG",
        "meta_epoch": "2025-11-29T09:07:25.735008",
        "meta_mean_motion": 14.38541647,
        "meta_eccentricity": 0.00553237,
        "meta_inclination": 100.7173,
        "meta_ra_of_asc_node": 202.2097,
        "meta_arg_of_pericenter": 58.3475,
        "meta_mean_anomaly": 302.3085,
        "meta_ephemeris_type": 0,
        "meta_classification_type": "U",
        "meta_norad_cat_id": 31565,
        "meta_element_set_no": 999,
        "meta_rev_at_epoch": 64161,
        "meta_bstar": 0.0030186467,
        "meta_mean_motion_dot": 9.348e-05,
        "meta_mean_motion_ddot": 0,
        "tle_line1": "1 31565U 99025BZG 25333.38015897  .00009348  00000+0  30186-2 0  9995",
        "tle_line2": "2 31565 100.7173 202.2097 0055323  58.3475 302.3085 14.38541647641615"
      },
      "geometry": {
        "type": "Point",
        "coordinates": [
          -142.41378276060365,
          -38.93420171623832
        ]
      }
    },
    {
      "type": "Feature",
      "properties": {
        "norad_id": 31566,
        "name": "FENGYUN 1C DEB",
        "group": "fengyun-1c-debris",
        "lat": 55.869921879152045,
        "lon": 23.805531702993665,
        "alt_km": 748.7486777388494,
        "timestamp": "2025-12-04T15:47:54.381535+00:00",
        "meta_object_name": "FENGYUN 1C DEB",
        "meta_object_id": "1999-025BZH",
        "meta_epoch": "2025-12-03T10:04:09.728256",
        "meta_mean_motion": 14.37208663,
        "meta_eccentricity": 0.00231956,
        "meta_inclination": 98.9505,
        "meta_ra_of_asc_node": 35.9625,
        "meta_arg_of_pericenter": 25.3859,
        "meta_mean_anomaly": 106.0154,
        "meta_ephemeris_type": 0,
        "meta_classification_type": "U",
        "meta_norad_cat_id": 31566,
        "meta_element_set_no": 999,
        "meta_rev_at_epoch": 96257,
        "meta_bstar": 0.0026870153,
        "meta_mean_motion_dot": 7.985e-05,
        "meta_mean_motion_ddot": 0,
        "tle_line1": "1 31566U 99025BZH 25337.41955704  .00007985  00000+0  26870-2 0  9994",
        "tle_line2": "2 31566  98.9505  35.9625 0023195  25.3859 106.0154 14.37208663962577"
      },
      "geometry": {
        "type": "Point",
        "coordinates": [
          23.805531702993665,
          55.869921879152045
        ]
      }
    },
    {
      "type": "Feature",
      "properties": {
        "norad_id": 31567,
        "name": "FENGYUN 1C DEB",
        "group": "fengyun-1c-debris",
        "lat": -12.843513599872919,
        "lon": 19.856635564961273,
        "alt_km": 1018.2643583634881,
        "timestamp": "2025-12-04T15:47:54.381548+00:00",
        "meta_object_name": "FENGYUN 1C DEB",
        "meta_object_id": "1999-025BZJ",
        "meta_epoch": "2025-12-01T02:23:03.770880",
        "meta_mean_motion": 13.92716645,
        "meta_eccentricity": 0.0187511,
        "meta_inclination": 102.3183,
        "meta_ra_of_asc_node": 197.9924,
        "meta_arg_of_pericenter": 336.345,
        "meta_mean_anomaly": 22.916,
        "meta_ephemeris_type": 0,
        "meta_classification_type": "U",
        "meta_norad_cat_id": 31567,
        "meta_element_set_no": 999,
        "meta_rev_at_epoch": 67247,
        "meta_bstar": 0.0035029529,
        "meta_mean_motion_dot": 5.166e-05,
        "meta_mean_motion_ddot": 0,
        "tle_line1": "1 31567U 99025BZJ 25335.09934920  .00005166  00000+0  35030-2 0  9991",
        "tle_line2": "2 31567 102.3183 197.9924 0187511 336.3450  22.9160 13.92716645672470"
      },
      "geometry": {
        "type": "Point",
        "coordinates": [
          19.856635564961273,
          -12.843513599872919
        ]
      }
    },
    {
      "type": "Feature",
      "properties": {
        "norad_id": 31568,
        "name": "FENGYUN 1C DEB",
        "group": "fengyun-1c-debris",
        "lat": 62.24059975021038,
        "lon": -165.75611398140947,
        "alt_km": 855.3280456708017,
        "timestamp": "2025-12-04T15:47:54.381560+00:00",
        "meta_object_name": "FENGYUN 1C DEB",
        "meta_object_id": "1999-025BZK",
        "meta_epoch": "2025-11-27T22:38:02.918112",
        "meta_mean_motion": 14.03182798,
        "meta_eccentricity": 0.0121792,
        "meta_inclination": 102.0468,
        "meta_ra_of_asc_node": 209.318,
        "meta_arg_of_pericenter": 158.3893,
        "meta_mean_anomaly": 202.2464,
        "meta_ephemeris_type": 0,
        "meta_classification_type": "U",
        "meta_norad_cat_id": 31568,
        "meta_element_set_no": 999,
        "meta_rev_at_epoch": 94372,
        "meta_bstar": 0.0028015,
        "meta_mean_motion_dot": 4.595e-05,
        "meta_mean_motion_ddot": 0,
        "tle_line1": "1 31568U 99025BZK 25331.94308933  .00004595  00000+0  28015-2 0  9991",
        "tle_line2": "2 31568 102.0468 209.3180 0121792 158.3893 202.2464 14.03182798943726"
      },
      "geometry": {
        "type": "Point",
        "coordinates": [
          -165.75611398140947,
          62.24059975021038
        ]
      }
    },
    {
      "type": "Feature",
      "properties": {
        "norad_id": 31569,
        "name": "FENGYUN 1C DEB",
        "group": "fengyun-1c-debris",
        "lat": 60.40349008574899,
        "lon": -23.846363415277104,
        "alt_km": 904.1822478595395,
        "timestamp": "2025-12-04T15:47:54.381570+00:00",
        "meta_object_name": "FENGYUN 1C DEB",
        "meta_object_id": "1999-025BZL",
        "meta_epoch": "2025-11-30T05:24:01.468800",
        "meta_mean_motion": 13.95405103,
        "meta_eccentricity": 0.01728622,
        "meta_inclination": 102.6164,
        "meta_ra_of_asc_node": 126.885,
        "meta_arg_of_pericenter": 36.2337,
        "meta_mean_anomaly": 138.7821,
        "meta_ephemeris_type": 0,
        "meta_classification_type": "U",
        "meta_norad_cat_id": 31569,
        "meta_element_set_no": 999,
        "meta_rev_at_epoch": 93504,
        "meta_bstar": 0.0023090613,
        "meta_mean_motion_dot": 3.477e-05,
        "meta_mean_motion_ddot": 0,
        "tle_line1": "1 31569U 99025BZL 25334.22501700  .00003477  00000+0  23091-2 0  9990",
        "tle_line2": "2 31569 102.6164 126.8850 0172862  36.2337 138.7821 13.95405103935048"
      },
      "geometry": {
        "type": "Point",
        "coordinates": [
          -23.846363415277104,
          60.40349008574899
        ]
      }
    },
    {
      "type": "Feature",
      "properties": {
        "norad_id": 31570,
        "name": "FENGYUN 1C DEB",
        "group": "fengyun-1c-debris",
        "lat": -32.95877525846641,
        "lon": -174.18080689801494,
        "alt_km": 718.365246174485,
        "timestamp": "2025-12-04T15:47:54.381580+00:00",
        "meta_object_name": "FENGYUN 1C DEB",
        "meta_object_id": "1999-025BZM",
        "meta_epoch": "2025-11-25T06:40:18.493248",
        "meta_mean_motion": 14.24909801,
        "meta_eccentricity": 0.01526257,
        "meta_inclination": 102.5663,
        "meta_ra_of_asc_node": 0.7562,
        "meta_arg_of_pericenter": 266.5584,
        "meta_mean_anomaly": 91.8112,
        "meta_ephemeris_type": 0,
        "meta_classification_type": "U",
        "meta_norad_cat_id": 31570,
        "meta_element_set_no": 999,
        "meta_rev_at_epoch": 63118,
        "meta_bstar": 0.0023713757,
        "meta_mean_motion_dot": 6.183e-05,
        "meta_mean_motion_ddot": 0,
        "tle_line1": "1 31570U 99025BZM 25329.27799182  .00006183  00000+0  23714-2 0  9993",
        "tle_line2": "2 31570 102.5663   0.7562 0152625 266.5584  91.8112 14.24909801631187"
      },
      "geometry": {
        "type": "Point",
        "coordinates": [
          -174.18080689801494,
          -32.95877525846641
        ]
      }
    },
    {
      "type": "Feature",
      "properties": {
        "norad_id": 31608,
        "name": "FENGYUN 1C DEB",
        "group": "fengyun-1c-debris",
        "lat": -9.620647266070355,
        "lon": 97.80218807946476,
        "alt_km": 584.7197795727216,
        "timestamp": "2025-12-04T15:47:54.381591+00:00",
        "meta_object_name": "FENGYUN 1C DEB",
        "meta_object_id": "1999-025BZN",
        "meta_epoch": "2025-12-01T13:29:07.607040",
        "meta_mean_motion": 14.85609369,
        "meta_eccentricity": 0.01468978,
        "meta_inclination": 98.3795,
        "meta_ra_of_asc_node": 93.1111,
        "meta_arg_of_pericenter": 73.6364,
        "meta_mean_anomaly": 288.0943,
        "meta_ephemeris_type": 0,
        "meta_classification_type": "U",
        "meta_norad_cat_id": 31608,
        "meta_element_set_no": 999,
        "meta_rev_at_epoch": 98467,
        "meta_bstar": 0.00073966432,
        "meta_mean_motion_dot": 7.721e-05,
        "meta_mean_motion_ddot": 0,
        "tle_line1": "1 31608U 99025BZN 25335.56189360  .00007721  00000+0  73966-3 0  9999",
        "tle_line2": "2 31608  98.3795  93.1111 0146897  73.6364 288.0943 14.85609369984670"
      },
      "geometry": {
        "type": "Point",
        "coordinates": [
          97.80218807946476,
          -9.620647266070355
        ]
      }
    }
  ]
}